NORAD_CAT_ID,OBJECT_NAME,OBJECT_TYPE,EPOCH,MEAN_MOTION,ECCENTRICITY,INCLINATION,RA_OF_ASC_NODE,ARG_OF_PERICENTER,MEAN_ANOMALY,BSTAR,MEAN_MOTION_DOT,MEAN_MOTION_DDOT,TLE_LINE0,TLE_LINE1,TLE_LINE2,SEMIMAJOR_AXIS,PERIOD,APOGEE,PERIGEE,DECAYED
52564.0,STARLINK-3959,PAYLOAD,2023-02-23 18:36:33,15.08836679,0.0001315,53.2171,76.7282,89.7275,270.3868,2.3795e-05,9.1e-07,0.0,0 STARLINK-3959,1 52564U 22051AH  23054.77538985  .00000091  00000-0  23795-4 0  9998,2 52564  53.2171  76.7282 0001315  89.7275 270.3868 15.08836679 43816,6917.891,95.438,540.665,538.846,0.0
52564.0,STARLINK-3959,PAYLOAD,2023-02-24 05:44:15,15.08841991,0.0001267,53.2168,74.6459,88.2462,271.8675,0.00012816,1.752e-05,0.0,0 STARLINK-3959,1 52564U 22051AH  23055.23906431  .00001752  00000-0  12816-3 0  9991,2 52564  53.2168  74.6459 0001267  88.2462 271.8675 15.08841991 43953,6917.874,95.437,540.616,538.863,0.0
52564.0,STARLINK-3959,PAYLOAD,2023-02-24 07:19:38,15.08846147,0.0001228,53.2167,74.3476,86.1078,274.0055,0.00010123,1.324e-05,0.0,0 STARLINK-3959,1 52564U 22051AH  23055.30530250  .00001324  00000-0  10123-3 0  9995,2 52564  53.2167  74.3476 0001228  86.1078 274.0055 15.08846147 43893,6917.862,95.437,540.576,538.877,0.0
52564.0,STARLINK-3959,PAYLOAD,2023-02-24 13:41:10,15.08852264,0.0001312,53.217,73.158,89.3493,270.765,0.00016714,2.374e-05,0.0,0 STARLINK-3959,1 52564U 22051AH  23055.57025604  .00002374  00000-0  16714-3 0  9994,2 52564  53.2170  73.1580 0001312  89.3493 270.7650 15.08852264 44005,6917.843,95.437,540.616,538.8,0.0
52564.0,STARLINK-3959,PAYLOAD,2023-02-24 18:27:21,15.08825299,0.0001644,53.2157,72.2657,89.9083,270.2098,-5.725e-05,-1.199e-05,0.0,0 STARLINK-3959,1 52564U 22051AH  23055.76900020 -.00001199  00000-0 -57250-4 0  9996,2 52564  53.2157  72.2657 0001644  89.9083 270.2098 15.08825299 44036,6917.925,95.438,540.928,538.653,0.0
52564.0,STARLINK-3959,PAYLOAD,2023-02-25 07:10:26,15.08830405,0.0001195,53.2168,69.8858,98.1003,262.0125,0.00010001,1.304e-05,0.0,0 STARLINK-3959,1 52564U 22051AH  23056.29891445  .00001304  00000-0  10001-3 0  9993,2 52564  53.2168  69.8858 0001195  98.1003 262.0125 15.08830405 44112,6917.91,95.438,540.601,538.948,0.0
52564.0,STARLINK-3959,PAYLOAD,2023-02-25 18:18:07,15.08839991,0.0001115,53.2164,67.8042,97.3838,262.7281,6.0882e-05,6.81e-06,0.0,0 STARLINK-3959,1 52564U 22051AH  23056.76258971  .00000681  00000-0  60882-4 0  9996,2 52564  53.2164  67.8042 0001115  97.3838 262.7281 15.08839991 44186,6917.88,95.438,540.517,538.974,0.0
52564.0,STARLINK-3959,PAYLOAD,2023-02-26 10:11:57,15.08863896,0.0001118,53.2162,64.8321,104.3274,255.7842,0.00013747,1.902e-05,0.0,0 STARLINK-3959,1 52564U 22051AH  23057.42497404  .00001902  00000-0  13747-3 0  9990,2 52564  53.2162  64.8321 0001118 104.3274 255.7842 15.08863896 44284,6917.807,95.436,540.446,538.899,0.0
52564.0,STARLINK-3959,PAYLOAD,2023-02-27 06:52:00,15.08845537,7.27e-05,53.2162,60.9656,82.596,277.5115,0.00031077,4.662e-05,0.0,0 STARLINK-3959,1 52564U 22051AH  23058.28611343  .00004662  00000-0  31077-3 0  9997,2 52564  53.2162  60.9656 0000727  82.5960 277.5115 15.08845537 44418,6917.863,95.437,540.231,539.226,0.0
52564.0,STARLINK-3959,PAYLOAD,2023-02-27 10:02:46,15.08851337,0.0001195,53.2159,60.372,88.4839,271.629,0.00034162,5.155e-05,0.0,0 STARLINK-3959,1 52564U 22051AH  23058.41858825  .00005155  00000-0  34162-3 0  9996,2 52564  53.2159  60.3720 0001195  88.4839 271.6290 15.08851337 44436,6917.846,95.437,540.537,538.884,0.0
52564.0,STARLINK-3959,PAYLOAD,2023-02-28 06:42:45,15.08886359,0.0001414,53.2175,56.5083,97.418,262.6973,0.00097225,0.00015239,0.0,0 STARLINK-3959,1 52564U 22051AH  23059.27968959  .00015239  00000-0  97225-3 0  9994,2 52564  53.2175  56.5083 0001414  97.4180 262.6973 15.08886359 44560,6917.739,95.435,540.582,538.626,0.0
52564.0,STARLINK-3959,PAYLOAD,2023-02-28 11:28:53,15.08912265,0.0001277,53.2166,55.6144,92.5977,267.5162,0.0018032,0.00028584,0.0,0 STARLINK-3959,1 52564U 22051AH  23059.47840245  .00028584  00000-0  18032-2 0  9998,2 52564  53.2166  55.6144 0001277  92.5977 267.5162 15.08912265 44521,6917.66,95.433,540.408,538.641,0.0
52564.0,STARLINK-3959,PAYLOAD,2023-02-28 16:15:04,15.08814971,0.0001069,53.2173,54.7226,133.0294,227.0788,-0.003156,-0.00050131,0.0,0 STARLINK-3959,1 52564U 22051AH  23059.67713103 -.00050131  00000-0 -31560-2 0  9998,2 52564  53.2173  54.7226 0001069 133.0294 227.0788 15.08814971 44623,6917.957,95.439,540.561,539.082,0.0
52564.0,STARLINK-3959,PAYLOAD,2023-03-01 04:58:10,15.08793695,0.0001057,53.2169,52.3434,142.0055,218.1012,0.00062341,9.635e-05,0.0,0 STARLINK-3959,1 52564U 22051AH  23060.20707036  .00009635  00000-0  62341-3 0  9990,2 52564  53.2169  52.3434 0001057 142.0055 218.1012 15.08793695 44704,6918.022,95.44,540.618,539.156,0.0
52564.0,STARLINK-3959,PAYLOAD,2023-03-01 16:05:54,15.08800558,8.32e-05,53.2165,50.2624,131.18,228.9264,0.0010971,0.00017197,0.0,0 STARLINK-3959,1 52564U 22051AH  23060.67076631  .00017197  00000-0  10971-2 0  9994,2 52564  53.2165  50.2624 0000832 131.1800 228.9264 15.08800558 44700,6918.001,95.44,540.442,539.29,0.0
52564.0,STARLINK-3959,PAYLOAD,2023-03-02 03:13:36,15.08831129,7.75e-05,53.2159,48.1801,134.422,225.6836,0.0016027,0.00025305,0.0,0 STARLINK-3959,1 52564U 22051AH  23061.13445186  .00025305  00000-0  16027-2 0  9999,2 52564  53.2159  48.1801 0000775 134.4220 225.6836 15.08831129 44846,6917.908,95.438,540.309,539.236,0.0
52564.0,STARLINK-3959,PAYLOAD,2023-03-02 15:56:41,15.08861719,7.31e-05,53.2158,45.8012,131.9176,228.1878,0.0017142,0.00027115,0.0,0 STARLINK-3959,1 52564U 22051AH  23061.66436876  .00027115  00000-0  17142-2 0  9993,2 52564  53.2158  45.8012 0000731 131.9176 228.1878 15.08861719 44850,6917.814,95.436,540.185,539.173,0.0
52564.0,STARLINK-3959,PAYLOAD,2023-03-03 07:50:31,15.08904533,7.9e-05,53.2157,42.8276,132.5634,227.5425,0.0023047,0.00036647,0.0,0 STARLINK-3959,1 52564U 22051AH  23062.32675060  .00036647  00000-0  23047-2 0  9998,2 52564  53.2157  42.8276 0000790 132.5634 227.5425 15.08904533 45022,6917.683,95.433,540.095,539.002,0.0
52564.0,STARLINK-3959,PAYLOAD,2023-03-03 11:01:16,15.08916021,7.84e-05,53.2155,42.2325,132.8757,227.2301,0.0023754,0.00037798,0.0,0 STARLINK-3959,1 52564U 22051AH  23062.45922392  .00037798  00000-0  23754-2 0  9998,2 52564  53.2155  42.2325 0000784 132.8757 227.2301 15.08916021 44979,6917.648,95.433,540.055,538.971,0.0
52564.0,STARLINK-3959,PAYLOAD,2023-03-03 15:47:26,15.08862336,9.19e-05,53.2157,41.3402,112.5743,247.5347,-0.0005698,-9.35e-05,0.0,0 STARLINK-3959,1 52564U 22051AH  23062.65794787 -.00009350  00000-0 -56980-3 0  9998,2 52564  53.2157  41.3402 0000919 112.5743 247.5347 15.08862336 45073,6917.812,95.436,540.313,539.041,0.0
52564.0,STARLINK-3959,PAYLOAD,2023-03-04 07:41:17,15.08888693,0.0001062,53.2169,38.3651,106.2855,253.8254,0.002709,0.00043147,0.0,0 STARLINK-3959,1 52564U 22051AH  23063.32033797  .00043147  00000-0  27090-2 0  9999,2 52564  53.2169  38.3651 0001062 106.2855 253.8254 15.08888693 45174,6917.732,95.434,540.331,538.862,0.0
52564.0,STARLINK-3959,PAYLOAD,2023-03-04 10:52:03,15.0889075,0.000112,53.2162,37.7696,106.7728,253.3388,0.0023102,0.00036722,0.0,0 STARLINK-3959,1 52564U 22051AH  23063.45281475  .00036722  00000-0  23102-2 0  9992,2 52564  53.2162  37.7696 0001120 106.7728 253.3388 15.08890750 45123,6917.725,95.434,540.365,538.815,0.0
52564.0,STARLINK-3959,PAYLOAD,2023-03-04 21:59:45,15.08869895,0.0005178,53.2171,35.6883,120.1495,240.0011,0.0016637,0.00026316,0.0,0 STARLINK-3959,1 52564U 22051AH  23063.91650383  .00026316  00000-0  16637-2 0  9994,2 52564  53.2171  35.6883 0005178 120.1495 240.0011 15.08869895 45263,6917.789,95.436,543.236,536.072,0.0
52564.0,STARLINK-3959,PAYLOAD,2023-03-05 14:00:01,15.08823047,9.01e-05,53.2163,32.6969,92.7212,291.485,0.00091128,0.00014238,0.0,0 STARLINK-3959,1 52564U 22051AH  23064.58334491  .00014238  00000-0  91128-3 0  9996,2 52564  53.2163  32.6969 0000901  92.7212 291.4850 15.08823047  1303,6917.932,95.439,540.421,539.174,0.0
52564.0,STARLINK-3959,PAYLOAD,2023-03-05 16:00:00,15.08813026,8.91e-05,53.2166,32.3224,99.2504,17.8527,0.0031281,0.00049811,0.0,0 STARLINK-3959,1 52564U 22051AH  23064.66667824  .00049811  00000-0  31281-2 0  9992,2 52564  53.2166  32.3224 0000891  99.2504  17.8527 15.08813026 45373,6917.963,95.439,540.444,539.211,0.0
52564.0,STARLINK-3959,PAYLOAD,2023-03-06 04:12:06,15.0886574,0.000132,53.2181,30.0369,98.1053,262.0089,0.0019699,0.00031224,0.0,0 STARLINK-3959,1 52564U 22051AH  23065.17506984  .00031224  00000-0  19699-2 0  9996,2 52564  53.2181  30.0369 0001320  98.1053 262.0089 15.08865740 45456,6917.802,95.436,540.58,538.754,0.0
52564.0,STARLINK-3959,PAYLOAD,2023-03-07 04:02:53,15.08840665,0.0001069,53.2176,25.5819,68.8531,291.2575,0.0010524,0.00016501,0.0,0 STARLINK-3959,1 52564U 22051AH  23066.16867807  .00016501  00000-0  10524-2 0  9999,2 52564  53.2176  25.5819 0001069  68.8531 291.2575 15.08840665 45604,6917.878,95.438,540.483,539.004,0.0
52564.0,STARLINK-3959,PAYLOAD,2023-03-07 21:32:08,15.08837228,0.0001256,53.2177,22.3082,71.0043,289.1085,0.0012415,0.00019524,0.0,0 STARLINK-3959,1 52564U 22051AH  23066.89732076  .00019524  00000-0  12415-2 0  9997,2 52564  53.2177  22.3082 0001256  71.0043 289.1085 15.08837228 45719,6917.889,95.438,540.623,538.885,0.0
52564.0,STARLINK-3959,PAYLOAD,2023-03-08 02:18:17,15.08857611,0.0001199,53.2179,21.4165,87.6226,272.4903,0.0020525,0.00032544,0.0,0 STARLINK-3959,1 52564U 22051AH  23067.09603921  .00032544  00000-0  20525-2 0  9994,2 52564  53.2179  21.4165 0001199  87.6226 272.4903 15.08857611 45740,6917.827,95.436,540.521,538.862,0.0
52564.0,STARLINK-3959,PAYLOAD,2023-03-08 19:47:32,15.08863983,0.0001634,53.2167,18.1465,49.259,310.8544,0.0018821,0.00029812,0.0,0 STARLINK-3959,1 52564U 22051AH  23067.82467768  .00029812  00000-0  18821-2 0  9992,2 52564  53.2167  18.1465 0001634  49.2590 310.8544 15.08863983 45786,6917.807,95.436,540.802,538.542,0.0
